{
  "type": "FeatureCollection",
  "features": [
    {
      "type": "Feature",
      "properties": {
        "norad_id": 30639,
        "name": "FENGYUN 1C DEB",
        "group": "fengyun-1c-debris",
        "lat": -59.89930776082467,
        "lon": -107.73966457681912,
        "alt_km": 775.2167192239122,
        "timestamp": "2025-12-02T13:52:17.539862+00:00",
        "meta_object_name": "FENGYUN 1C DEB",
        "meta_object_id": "1999-025ANW",
        "meta_epoch": "2025-12-02T06:02:08.593440",
        "meta_mean_motion": 14.32064956,
        "meta_eccentricity": 0.00665713,
        "meta_inclination": 99.0189,
        "meta_ra_of_asc_node": 87.8223,
        "meta_arg_of_pericenter": 311.9134,
        "meta_mean_anomaly": 47.6383,
        "meta_ephemeris_type": 0,
        "meta_classification_type": "U",
        "meta_norad_cat_id": 30639,
        "meta_element_set_no": 999,
        "meta_rev_at_epoch": 96569,
        "meta_bstar": 0.0034267163,
        "meta_mean_motion_dot": 9.399e-05,
        "meta_mean_motion_ddot": 0,
        "tle_line1": "1 30639U 99025ANW 25336.25148835  .00009399  00000+0  34267-2 0  9994",
        "tle_line2": "2 30639  99.0189  87.8223 0066571 311.9134  47.6383 14.32064956965692"
      },
      "geometry": {
        "type": "Point",
        "coordinates": [
          -107.73966457681912,
          -59.89930776082467
        ]
      }
    },
    {
      "type": "Feature",
      "properties": {
        "norad_id": 30640,
        "name": "FENGYUN 1C DEB",
        "group": "fengyun-1c-debris",
        "lat": -57.62543710016324,
        "lon": 62.21482960608413,
        "alt_km": 909.2749286560356,
        "timestamp": "2025-12-02T13:52:17.539872+00:00",
        "meta_object_name": "FENGYUN 1C DEB",
        "meta_object_id": "1999-025ANX",
        "meta_epoch": "2025-12-02T04:13:49.348704",
        "meta_mean_motion": 14.14535173,
        "meta_eccentricity": 0.00815236,
        "meta_inclination": 99.0589,
        "meta_ra_of_asc_node": 47.2328,
        "meta_arg_of_pericenter": 130.1303,
        "meta_mean_anomaly": 286.4904,
        "meta_ephemeris_type": 0,
        "meta_classification_type": "U",
        "meta_norad_cat_id": 30640,
        "meta_element_set_no": 999,
        "meta_rev_at_epoch": 96296,
        "meta_bstar": 0.0016229896,
        "meta_mean_motion_dot": 3.171e-05,
        "meta_mean_motion_ddot": 0,
        "tle_line1": "1 30640U 99025ANX 25336.17626561  .00003171  00000+0  16230-2 0  9996",
        "tle_line2": "2 30640  99.0589  47.2328 0081523 130.1303 286.4904 14.14535173962960"
      },
      "geometry": {
        "type": "Point",
        "coordinates": [
          62.21482960608413,
          -57.62543710016324
        ]
      }
    },
    {
      "type": "Feature",
      "properties": {
        "norad_id": 30641,
        "name": "FENGYUN 1C DEB",
        "group": "fengyun-1c-debris",
        "lat": 57.23855174601694,
        "lon": -104.33459771421553,
        "alt_km": 642.8216731987131,
        "timestamp": "2025-12-02T13:52:17.539883+00:00",
        "meta_object_name": "FENGYUN 1C DEB",
        "meta_object_id": "1999-025ANY",
        "meta_epoch": "2025-12-01T07:25:47.309376",
        "meta_mean_motion": 14.7881945,
        "meta_eccentricity": 0.01357729,
        "meta_inclination": 98.9406,
        "meta_ra_of_asc_node": 268.4174,
        "meta_arg_of_pericenter": 162.4298,
        "meta_mean_anomaly": 348.8035,
        "meta_ephemeris_type": 0,
        "meta_classification_type": "U",
        "meta_norad_cat_id": 30641,
        "meta_element_set_no": 999,
        "meta_rev_at_epoch": 363,
        "meta_bstar": 0.00055381663,
        "meta_mean_motion_dot": 4.688e-05,
        "meta_mean_motion_ddot": 0,
        "tle_line1": "1 30641U 99025ANY 25335.30957534  .00004688  00000+0  55382-3 0  9994",
        "tle_line2": "2 30641  98.9406 268.4174 0135772 162.4298 348.8035 14.78819450  3631"
      },
      "geometry": {
        "type": "Point",
        "coordinates": [
          -104.33459771421553,
          57.23855174601694
        ]
      }
    },
    {
      "type": "Feature",
      "properties": {
        "norad_id": 30646,
        "name": "FENGYUN 1C DEB",
        "group": "fengyun-1c-debris",
        "lat": 10.345750662506966,
        "lon": 179.10592039013673,
        "alt_km": 873.2968066500944,
        "timestamp": "2025-12-02T13:52:17.539893+00:00",
        "meta_object_name": "FENGYUN 1C DEB",
        "meta_object_id": "1999-025APD",
        "meta_epoch": "2025-12-02T07:57:52.423200",
        "meta_mean_motion": 14.09613616,
        "meta_eccentricity": 0.00487014,
        "meta_inclination": 98.6529,
        "meta_ra_of_asc_node": 357.2764,
        "meta_arg_of_pericenter": 61.4292,
        "meta_mean_anomaly": 299.1768,
        "meta_ephemeris_type": 0,
        "meta_classification_type": "U",
        "meta_norad_cat_id": 30646,
        "meta_element_set_no": 999,
        "meta_rev_at_epoch": 96458,
        "meta_bstar": 0.00086872602,
        "meta_mean_motion_dot": 1.497e-05,
        "meta_mean_motion_ddot": 0,
        "tle_line1": "1 30646U 99025APD 25336.33185675  .00001497  00000+0  86873-3 0  9996",
        "tle_line2": "2 30646  98.6529 357.2764 0048701  61.4292 299.1768 14.09613616964589"
      },
      "geometry": {
        "type": "Point",
        "coordinates": [
          179.10592039013673,
          10.345750662506966
        ]
      }
    },
    {
      "type": "Feature",
      "properties": {
        "norad_id": 30647,
        "name": "FENGYUN 1C DEB",
        "group": "fengyun-1c-debris",
        "lat": 2.3905244934704912,
        "lon": -92.54175762143473,
        "alt_km": 726.8092756450942,
        "timestamp": "2025-12-02T13:52:17.539902+00:00",
        "meta_object_name": "FENGYUN 1C DEB",
        "meta_object_id": "1999-025APE",
        "meta_epoch": "2025-12-01T18:21:14.628096",
        "meta_mean_motion": 14.56107117,
        "meta_eccentricity": 0.00287471,
        "meta_inclination": 98.9882,
        "meta_ra_of_asc_node": 266.9614,
        "meta_arg_of_pericenter": 209.9136,
        "meta_mean_anomaly": 211.9928,
        "meta_ephemeris_type": 0,
        "meta_classification_type": "U",
        "meta_norad_cat_id": 30647,
        "meta_element_set_no": 999,
        "meta_rev_at_epoch": 97829,
        "meta_bstar": 0.002512627,
        "meta_mean_motion_dot": 0.00011106,
        "meta_mean_motion_ddot": 0,
        "tle_line1": "1 30647U 99025APE 25335.76475264  .00011106  00000+0  25126-2 0  9990",
        "tle_line2": "2 30647  98.9882 266.9614 0028747 209.9136 211.9928 14.56107117978298"
      },
      "geometry": {
        "type": "Point",
        "coordinates": [
          -92.54175762143473,
          2.3905244934704912
        ]
      }
    },
    {
      "type": "Feature",
      "properties": {
        "norad_id": 30648,
        "name": "FENGYUN 1C DEB",
        "group": "fengyun-1c-debris",
        "lat": 80.42696826808616,
        "lon": -44.6382079180068,
        "alt_km": 714.1600944010825,
        "timestamp": "2025-12-02T13:52:17.539912+00:00",
        "meta_object_name": "FENGYUN 1C DEB",
        "meta_object_id": "1999-025APF",
        "meta_epoch": "2025-12-01T18:06:47.147040",
        "meta_mean_motion": 14.47819486,
        "meta_eccentricity": 0.0035132,
        "meta_inclination": 98.6395,
        "meta_ra_of_asc_node": 70.1654,
        "meta_arg_of_pericenter": 160.2965,
        "meta_mean_anomaly": 325.6499,
        "meta_ephemeris_type": 0,
        "meta_classification_type": "U",
        "meta_norad_cat_id": 30648,
        "meta_element_set_no": 999,
        "meta_rev_at_epoch": 97707,
        "meta_bstar": 0.0023466205,
        "meta_mean_motion_dot": 8.712e-05,
        "meta_mean_motion_ddot": 0,
        "tle_line1": "1 30648U 99025APF 25335.75471235  .00008712  00000+0  23466-2 0  9998",
        "tle_line2": "2 30648  98.6395  70.1654 0035132 160.2965 325.6499 14.47819486977079"
      },
      "geometry": {
        "type": "Point",
        "coordinates": [
          -44.6382079180068,
          80.42696826808616
        ]
      }
    },
    {
      "type": "Feature",
      "properties": {
        "norad_id": 30649,
        "name": "FENGYUN 1C DEB",
        "group": "fengyun-1c-debris",
        "lat": -22.25980389578419,
        "lon": -111.86433853982993,
        "alt_km": 762.3807316556058,
        "timestamp": "2025-12-02T13:52:17.539922+00:00",
        "meta_object_name": "FENGYUN 1C DEB",
        "meta_object_id": "1999-025APG",
        "meta_epoch": "2025-12-02T06:29:23.240832",
        "meta_mean_motion": 14.29355443,
        "meta_eccentricity": 0.00513616,
        "meta_inclination": 98.81,
        "meta_ra_of_asc_node": 71.4643,
        "meta_arg_of_pericenter": 200.9483,
        "meta_mean_anomaly": 219.6773,
        "meta_ephemeris_type": 0,
        "meta_classification_type": "U",
        "meta_norad_cat_id": 30649,
        "meta_element_set_no": 999,
        "meta_rev_at_epoch": 96914,
        "meta_bstar": 0.0025240349,
        "meta_mean_motion_dot": 6.482e-05,
        "meta_mean_motion_ddot": 0,
        "tle_line1": "1 30649U 99025APG 25336.27040788  .00006482  00000+0  25240-2 0  9996",
        "tle_line2": "2 30649  98.8100  71.4643 0051361 200.9483 219.6773 14.29355443969141"
      },
      "geometry": {
        "type": "Point",
        "coordinates": [
          -111.86433853982993,
          -22.25980389578419
        ]
      }
    }
  ]
}